[{"OBJECT_NAME":"STARLINK-33740","OBJECT_ID":"2025-069U","EPOCH":"2026-03-09T11:37:40.148544","MEAN_MOTION":15.3019038,"ECCENTRICITY":0.00013129,"INCLINATION":53.1576,"RA_OF_ASC_NODE":143.4009,"ARG_OF_PERICENTER":79.0729,"MEAN_ANOMALY":281.042,"EPHEMERIS_TYPE":0,"CLASSIFICATION_TYPE":"U","NORAD_CAT_ID":63451,"ELEMENT_SET_NO":999,"REV_AT_EPOCH":5326,"BSTAR":0.00098965169,"MEAN_MOTION_DOT":0.00029057,"MEAN_MOTION_DDOT":0},{"OBJECT_NAME":"ARIANE 3 DEB","OBJECT_ID":"1986-026F","EPOCH":"2026-03-09T15:10:47.020224","MEAN_MOTION":2.95802334,"ECCENTRICITY":0.66721151,"INCLINATION":8.5384,"RA_OF_ASC_NODE":268.4602,"ARG_OF_PERICENTER":28.9231,"MEAN_ANOMALY":355.6123,"EPHEMERIS_TYPE":0,"CLASSIFICATION_TYPE":"U","NORAD_CAT_ID":17254,"ELEMENT_SET_NO":999,"REV_AT_EPOCH":34154,"BSTAR":0.0049157481,"MEAN_MOTION_DOT":1.788e-5,"MEAN_MOTION_DDOT":0}]
